[{"OBJECT_NAME":"COLIBRI-S (RS67S)","OBJECT_ID":"2024-199M","EPOCH":"2026-03-09T22:39:12.638592","MEAN_MOTION":15.43465994,"ECCENTRICITY":0.00075412,"INCLINATION":97.3155,"RA_OF_ASC_NODE":302.1068,"ARG_OF_PERICENTER":284.1345,"MEAN_ANOMALY":75.9065,"EPHEMERIS_TYPE":0,"CLASSIFICATION_TYPE":"U","NORAD_CAT_ID":61746,"ELEMENT_SET_NO":999,"REV_AT_EPOCH":12208,"BSTAR":0.00055253762,"MEAN_MOTION_DOT":0.00024717,"MEAN_MOTION_DDOT":0},{"OBJECT_NAME":"BREEZE-KM R\/B","OBJECT_ID":"2017-064B","EPOCH":"2026-03-09T23:37:28.009344","MEAN_MOTION":15.19279068,"ECCENTRICITY":0.01790923,"INCLINATION":98.7537,"RA_OF_ASC_NODE":74.9596,"ARG_OF_PERICENTER":357.1764,"MEAN_ANOMALY":2.8439,"EPHEMERIS_TYPE":0,"CLASSIFICATION_TYPE":"U","NORAD_CAT_ID":42970,"ELEMENT_SET_NO":999,"REV_AT_EPOCH":45981,"BSTAR":0.00038198457,"MEAN_MOTION_DOT":0.00012295,"MEAN_MOTION_DDOT":0}]
